{
  "type": "FeatureCollection",
  "features": [
    {
      "type": "Feature",
      "properties": {
        "norad_id": 44334,
        "name": "EUTELSAT 7C",
        "group": "eutelsat",
        "lat": 0.043711870444117756,
        "lon": -63.31808803840549,
        "alt_km": 35775.784637132696,
        "timestamp": "2025-12-26T12:57:38.938642+00:00",
        "meta_object_name": "EUTELSAT 7C",
        "meta_object_id": "2019-034B",
        "meta_epoch": "2025-12-24T14:50:38.546016",
        "meta_mean_motion": 1.00270796,
        "meta_eccentricity": 0.00031593,
        "meta_inclination": 0.0726,
        "meta_ra_of_asc_node": 177.7928,
        "meta_arg_of_pericenter": 79.9691,
        "meta_mean_anomaly": 65.2631,
        "meta_ephemeris_type": 0,
        "meta_classification_type": "U",
        "meta_norad_cat_id": 44334,
        "meta_element_set_no": 999,
        "meta_rev_at_epoch": 508,
        "meta_bstar": 0,
        "meta_mean_motion_dot": 6.9e-07,
        "meta_mean_motion_ddot": 0,
        "tle_line1": "1 44334U 19034B   25358.61850169  .00000069  00000+0  00000+0 0  9997",
        "tle_line2": "2 44334   0.0726 177.7928 0003159  79.9691  65.2631  1.00270796  5083"
      },
      "geometry": {
        "type": "Point",
        "coordinates": [
          -63.31808803840549,
          0.043711870444117756
        ]
      }
    },
    {
      "type": "Feature",
      "properties": {
        "norad_id": 44624,
        "name": "EUTELSAT 5 WEST B",
        "group": "eutelsat",
        "lat": -0.07246324062948131,
        "lon": -75.30401522110351,
        "alt_km": 35772.95757624584,
        "timestamp": "2025-12-26T12:57:38.938654+00:00",
        "meta_object_name": "EUTELSAT 5 WEST B",
        "meta_object_id": "2019-067A",
        "meta_epoch": "2025-12-25T22:47:38.488128",
        "meta_mean_motion": 1.0027127,
        "meta_eccentricity": 0.00031947,
        "meta_inclination": 0.0622,
        "meta_ra_of_asc_node": 345.9649,
        "meta_arg_of_pericenter": 287.5339,
        "meta_mean_anomaly": 158.1146,
        "meta_ephemeris_type": 0,
        "meta_classification_type": "U",
        "meta_norad_cat_id": 44624,
        "meta_element_set_no": 999,
        "meta_rev_at_epoch": 2270,
        "meta_bstar": 0,
        "meta_mean_motion_dot": -2.1e-07,
        "meta_mean_motion_ddot": 0,
        "tle_line1": "1 44624U 19067A   25359.94975102 -.00000021  00000+0  00000+0 0  9996",
        "tle_line2": "2 44624   0.0622 345.9649 0003194 287.5339 158.1146  1.00271270 22703"
      },
      "geometry": {
        "type": "Point",
        "coordinates": [
          -75.30401522110351,
          -0.07246324062948131
        ]
      }
    },
    {
      "type": "Feature",
      "properties": {
        "norad_id": 45027,
        "name": "EUTELSAT KONNECT",
        "group": "eutelsat",
        "lat": -0.04519574732864292,
        "lon": -63.13522184082638,
        "alt_km": 35780.61317283248,
        "timestamp": "2025-12-26T12:57:38.938666+00:00",
        "meta_object_name": "EUTELSAT KONNECT",
        "meta_object_id": "2020-005B",
        "meta_epoch": "2025-12-24T23:24:19.351008",
        "meta_mean_motion": 1.00267204,
        "meta_eccentricity": 0.0001571,
        "meta_inclination": 0.069,
        "meta_ra_of_asc_node": 93.7711,
        "meta_arg_of_pericenter": 204.5991,
        "meta_mean_anomaly": 153.6522,
        "meta_ephemeris_type": 0,
        "meta_classification_type": "U",
        "meta_norad_cat_id": 45027,
        "meta_element_set_no": 999,
        "meta_rev_at_epoch": 2259,
        "meta_bstar": 0,
        "meta_mean_motion_dot": 7e-07,
        "meta_mean_motion_ddot": 0,
        "tle_line1": "1 45027U 20005B   25358.97522397  .00000070  00000+0  00000+0 0  9997",
        "tle_line2": "2 45027   0.0690  93.7711 0001571 204.5991 153.6522  1.00267204 22591"
      },
      "geometry": {
        "type": "Point",
        "coordinates": [
          -63.13522184082638,
          -0.04519574732864292
        ]
      }
    },
    {
      "type": "Feature",
      "properties": {
        "norad_id": 49056,
        "name": "EUTELSAT QUANTUM",
        "group": "eutelsat",
        "lat": -0.021761187596329196,
        "lon": -22.57891782472487,
        "alt_km": 35777.199421522215,
        "timestamp": "2025-12-26T12:57:38.938682+00:00",
        "meta_object_name": "EUTELSAT QUANTUM",
        "meta_object_id": "2021-069B",
        "meta_epoch": "2025-12-26T04:01:38.790048",
        "meta_mean_motion": 1.00271273,
        "meta_eccentricity": 0.00035941,
        "meta_inclination": 0.0134,
        "meta_ra_of_asc_node": 25.5084,
        "meta_arg_of_pericenter": 258.1659,
        "meta_mean_anomaly": 279.3536,
        "meta_ephemeris_type": 0,
        "meta_classification_type": "U",
        "meta_norad_cat_id": 49056,
        "meta_element_set_no": 999,
        "meta_rev_at_epoch": 1619,
        "meta_bstar": 0,
        "meta_mean_motion_dot": 1.48e-06,
        "meta_mean_motion_ddot": 0,
        "tle_line1": "1 49056U 21069B   25360.16781007  .00000148  00000+0  00000+0 0  9999",
        "tle_line2": "2 49056   0.0134  25.5084 0003594 258.1659 279.3536  1.00271273 16190"
      },
      "geometry": {
        "type": "Point",
        "coordinates": [
          -22.57891782472487,
          -0.021761187596329196
        ]
      }
    },
    {
      "type": "Feature",
      "properties": {
        "norad_id": 53765,
        "name": "EUTELSAT KONNECT VHTS",
        "group": "eutelsat",
        "lat": -0.03306305702043942,
        "lon": -67.59608504536152,
        "alt_km": 35779.41195253663,
        "timestamp": "2025-12-26T12:57:38.938694+00:00",
        "meta_object_name": "EUTELSAT KONNECT VHTS",
        "meta_object_id": "2022-110A",
        "meta_epoch": "2025-12-25T13:04:49.589760",
        "meta_mean_motion": 1.00267512,
        "meta_eccentricity": 0.0002526,
        "meta_inclination": 0.0614,
        "meta_ra_of_asc_node": 98.0209,
        "meta_arg_of_pericenter": 151.222,
        "meta_mean_anomaly": 43.9766,
        "meta_ephemeris_type": 0,
        "meta_classification_type": "U",
        "meta_norad_cat_id": 53765,
        "meta_element_set_no": 999,
        "meta_rev_at_epoch": 508,
        "meta_bstar": 0,
        "meta_mean_motion_dot": 3.8e-07,
        "meta_mean_motion_ddot": 0,
        "tle_line1": "1 53765U 22110A   25359.54501840  .00000038  00000+0  00000+0 0  9992",
        "tle_line2": "2 53765   0.0614  98.0209 0002526 151.2220  43.9766  1.00267512  5087"
      },
      "geometry": {
        "type": "Point",
        "coordinates": [
          -67.59608504536152,
          -0.03306305702043942
        ]
      }
    },
    {
      "type": "Feature",
      "properties": {
        "norad_id": 54048,
        "name": "EUTELSAT HOTBIRD 13F",
        "group": "eutelsat",
        "lat": -0.0047519693466722785,
        "lon": -57.342264420166494,
        "alt_km": 35781.370372227204,
        "timestamp": "2025-12-26T12:57:38.938706+00:00",
        "meta_object_name": "EUTELSAT HOTBIRD 13F",
        "meta_object_id": "2022-134A",
        "meta_epoch": "2025-12-24T23:25:56.697024",
        "meta_mean_motion": 1.00270775,
        "meta_eccentricity": 0.0002211,
        "meta_inclination": 0.0545,
        "meta_ra_of_asc_node": 289.4002,
        "meta_arg_of_pericenter": 71.817,
        "meta_mean_anomaly": 97.0057,
        "meta_ephemeris_type": 0,
        "meta_classification_type": "U",
        "meta_norad_cat_id": 54048,
        "meta_element_set_no": 999,
        "meta_rev_at_epoch": 1163,
        "meta_bstar": 0,
        "meta_mean_motion_dot": 1.08e-06,
        "meta_mean_motion_ddot": 0,
        "tle_line1": "1 54048U 22134A   25358.97635066  .00000108  00000+0  00000+0 0  9995",
        "tle_line2": "2 54048   0.0545 289.4002 0002211  71.8170  97.0057  1.00270775 11630"
      },
      "geometry": {
        "type": "Point",
        "coordinates": [
          -57.342264420166494,
          -0.0047519693466722785
        ]
      }
    },
    {
      "type": "Feature",
      "properties": {
        "norad_id": 54225,
        "name": "EUTELSAT HOTBIRD 13G",
        "group": "eutelsat",
        "lat": 0.022297956644582676,
        "lon": -57.32265039005865,
        "alt_km": 35791.04319091875,
        "timestamp": "2025-12-26T12:57:38.938717+00:00",
        "meta_object_name": "EUTELSAT HOTBIRD 13G",
        "meta_object_id": "2022-146A",
        "meta_epoch": "2025-12-24T00:28:38.654112",
        "meta_mean_motion": 1.00268836,
        "meta_eccentricity": 0.00017131,
        "meta_inclination": 0.0535,
        "meta_ra_of_asc_node": 227.8066,
        "meta_arg_of_pericenter": 307.349,
        "meta_mean_anomaly": 297.8001,
        "meta_ephemeris_type": 0,
        "meta_classification_type": "U",
        "meta_norad_cat_id": 54225,
        "meta_element_set_no": 999,
        "meta_rev_at_epoch": 571,
        "meta_bstar": 0,
        "meta_mean_motion_dot": 1.08e-06,
        "meta_mean_motion_ddot": 0,
        "tle_line1": "1 54225U 22146A   25358.01989183  .00000108  00000+0  00000+0 0  9992",
        "tle_line2": "2 54225   0.0535 227.8066 0001713 307.3490 297.8001  1.00268836  5716"
      },
      "geometry": {
        "type": "Point",
        "coordinates": [
          -57.32265039005865,
          0.022297956644582676
        ]
      }
    }
  ]
}